406P/Gibbs,e,1.2135,11.4727,352.3733,3.573953,0.1458750,0.54197364,34.6127,05/11.0/2021,2000,g 17.0,4.0
# From MPEC 2021-F20
407P/PANSTARRS-Fuls,e,4.8934,80.8265,92.5232,3.458039,0.1532708,0.38483764,71.2411,05/11.0/2021,2000,g 14.0,4.0
# From MPEC 2021-F20
408P/Novichonok-Gerke,e,19.3164,189.4705,225.8864,4.765186,0.0947511,0.27147193,311.7976,05/11.0/2021,2000,g 11.0,4.0
# From MPEC 2021-J28
409P/LONEOS-Hill,e,17.1188,143.6712,15.1336,6.048839,0.0662516,0.71002086,6.8130,05/11.0/2021,2000,g 14.0,4.0
# From MPEC 2021-F20
410P/NEAT-LINEAR,e,9.3938,139.9807,313.0972,6.630721,0.0577249,0.51030506,357.4846,05/11.0/2021,2000,g 12.5,4.0
# From MPEC 2021-J28
411P/Christensen,e,12.3775,77.6729,46.6737,5.818749,0.0702198,0.58087802,7.4831,05/11.0/2021,2000,g 13.5,4.0
# From MPEC 2021-F20
412P/WISE,e,8.9312,0.8490,155.9151,3.109693,0.1797330,0.47984096,28.1521,05/11.0/2021,2000,g 17.0,4.0
# From MPEC 2021-J28
413P/Larson,e,15.9778,39.0253,186.0365,3.710736,0.1378841,0.42332761,350.3210,05/11.0/2021,2000,g 14.0,4.0
# From MPEC 2021-BE3
414P/STEREO,e,23.3841,257.7891,210.7318,2.794876,0.2109407,0.81166592,22.2787,05/11.0/2021,2000,g 19.0,4.0
# From MPEC 2021-J28
415P/Tenagra,e,31.7916,160.2937,346.2782,4.116097,0.1180254,0.19484013,10.0008,05/11.0/2021,2000,g 12.0,4.0
# From MPEC 2021-F20
416P/Scotti,e,3.3613,355.8118,134.5236,4.013762,0.1225679,0.45439464,10.3585,05/11.0/2021,2000,g 15.5,4.0
# From MPEC 2021-J28
417P/NEOWISE,e,8.1310,111.3510,129.4586,3.347797,0.1609034,0.55433038,3.0291,05/11.0/2021,2000,g 16.5,4.0
# From MPEC 2021-J28
418P/LINEAR,e,5.7975,277.6607,307.0928,5.082109,0.0860277,0.66492137,346.2738,05/11.0/2021,2000,g 13.0,4.0
# From MPEC 2021-J28
419P/,e,2.8027,40.3908,187.4864,3.522071,0.1491100,0.27789396,334.7399,05/11.0/2021,2000,g 12.5,4.0
# From MPEC 2021-F20
420P/Hill,e,14.5029,173.9604,157.1459,5.520145,0.0759938,0.49485517,331.3597,05/11.0/2021,2000,g 11.5,4.0
# From MPC107687
1I/`Oumuamua,h,09/09.4886/2017,122.6778,24.5997,241.6845,1.199252,0.255240,2000,23.0,2.0
# From MPEC 2020-K19
2I/Borisov,h,12/08.5549/2019,44.0527,308.1480,209.1251,3.356636,2.006548,2000,11.0,4.0
